CCSDS_OMM_VERS = 2.0
CREATION_DATE  = 
ORIGINATOR     = 

OBJECT_NAME    = STARLINK-36466
OBJECT_ID      = 2026-003AA
CENTER_NAME    = EARTH
REF_FRAME      = TEME
TIME_SYSTEM    = UTC
MEAN_ELEMENT_THEORY = SGP/SGP4

EPOCH          = 2026-02-03T14:00:01.999872
MEAN_MOTION    = 15.50569001
ECCENTRICITY   = .00014169
INCLINATION    = 42.9993
RA_OF_ASC_NODE = 60.9073
ARG_OF_PERICENTER = 275.4035
MEAN_ANOMALY   = 84.4256

EPHEMERIS_TYPE = 0
CLASSIFICATION_TYPE = U
NORAD_CAT_ID   = 67358
ELEMENT_SET_NO = 999
REV_AT_EPOCH   = 519
BSTAR          = -.10801402E-3
MEAN_MOTION_DOT = -.667E-4
MEAN_MOTION_DDOT = 0

CCSDS_OMM_VERS = 2.0
CREATION_DATE  = 
ORIGINATOR     = 

OBJECT_NAME    = STARLINK-36499
OBJECT_ID      = 2026-003AB
CENTER_NAME    = EARTH
REF_FRAME      = TEME
TIME_SYSTEM    = UTC
MEAN_ELEMENT_THEORY = SGP/SGP4

EPOCH          = 2026-02-03T14:00:01.999872
MEAN_MOTION    = 15.50505836
ECCENTRICITY   = .00015414
INCLINATION    = 42.9993
RA_OF_ASC_NODE = 60.9025
ARG_OF_PERICENTER = 277.9119
MEAN_ANOMALY   = 83.7965

EPHEMERIS_TYPE = 0
CLASSIFICATION_TYPE = U
NORAD_CAT_ID   = 67359
ELEMENT_SET_NO = 999
REV_AT_EPOCH   = 519
BSTAR          = .17992245E-2
MEAN_MOTION_DOT = .106378E-2
MEAN_MOTION_DDOT = 0

CCSDS_OMM_VERS = 2.0
CREATION_DATE  = 
ORIGINATOR     = 

OBJECT_NAME    = STARLINK-36469
OBJECT_ID      = 2026-003AC
CENTER_NAME    = EARTH
REF_FRAME      = TEME
TIME_SYSTEM    = UTC
MEAN_ELEMENT_THEORY = SGP/SGP4

EPOCH          = 2026-02-03T14:00:01.999872
MEAN_MOTION    = 15.50521476
ECCENTRICITY   = .00014051
INCLINATION    = 42.9994
RA_OF_ASC_NODE = 60.8976
ARG_OF_PERICENTER = 279.5867
MEAN_ANOMALY   = 84.0092

EPHEMERIS_TYPE = 0
CLASSIFICATION_TYPE = U
NORAD_CAT_ID   = 67360
ELEMENT_SET_NO = 999
REV_AT_EPOCH   = 519
BSTAR          = .183704E-2
MEAN_MOTION_DOT = .108714E-2
MEAN_MOTION_DDOT = 0

CCSDS_OMM_VERS = 2.0
CREATION_DATE  = 
ORIGINATOR     = 

OBJECT_NAME    = STARLINK-35306
OBJECT_ID      = 2026-003AD
CENTER_NAME    = EARTH
REF_FRAME      = TEME
TIME_SYSTEM    = UTC
MEAN_ELEMENT_THEORY = SGP/SGP4

EPOCH          = 2026-02-03T14:00:01.999872
MEAN_MOTION    = 15.50494787
ECCENTRICITY   = .00017583
INCLINATION    = 42.9994
RA_OF_ASC_NODE = 60.8920
ARG_OF_PERICENTER = 278.4977
MEAN_ANOMALY   = 87.0968

EPHEMERIS_TYPE = 0
CLASSIFICATION_TYPE = U
NORAD_CAT_ID   = 67361
ELEMENT_SET_NO = 999
REV_AT_EPOCH   = 513
BSTAR          = .26566024E-2
MEAN_MOTION_DOT = .158224E-2
MEAN_MOTION_DDOT = 0

CCSDS_OMM_VERS = 2.0
CREATION_DATE  = 
ORIGINATOR     = 

OBJECT_NAME    = STARLINK-36428
OBJECT_ID      = 2026-003AE
CENTER_NAME    = EARTH
REF_FRAME      = TEME
TIME_SYSTEM    = UTC
MEAN_ELEMENT_THEORY = SGP/SGP4

EPOCH          = 2026-02-03T14:00:01.999872
MEAN_MOTION    = 15.50496652
ECCENTRICITY   = .00019569
INCLINATION    = 42.9996
RA_OF_ASC_NODE = 60.8872
ARG_OF_PERICENTER = 281.6847
MEAN_ANOMALY   = 85.8311

EPHEMERIS_TYPE = 0
CLASSIFICATION_TYPE = U
NORAD_CAT_ID   = 67362
ELEMENT_SET_NO = 999
REV_AT_EPOCH   = 519
BSTAR          = .21227317E-2
MEAN_MOTION_DOT = .125842E-2
MEAN_MOTION_DDOT = 0

CCSDS_OMM_VERS = 2.0
CREATION_DATE  = 
ORIGINATOR     = 

OBJECT_NAME    = TWILIGHT A
OBJECT_ID      = 2026-004A
CENTER_NAME    = EARTH
REF_FRAME      = TEME
TIME_SYSTEM    = UTC
MEAN_ELEMENT_THEORY = SGP/SGP4

EPOCH          = 2026-02-03T13:27:48.994272
MEAN_MOTION    = 14.87016395
ECCENTRICITY   = .00078925
INCLINATION    = 97.7995
RA_OF_ASC_NODE = 35.3125
ARG_OF_PERICENTER = 210.8346
MEAN_ANOMALY   = 149.2407

EPHEMERIS_TYPE = 0
CLASSIFICATION_TYPE = U
NORAD_CAT_ID   = 67363
ELEMENT_SET_NO = 999
REV_AT_EPOCH   = 341
BSTAR          = .54731025E-3
MEAN_MOTION_DOT = .4853E-4
MEAN_MOTION_DDOT = 0

CCSDS_OMM_VERS = 2.0
CREATION_DATE  = 
ORIGINATOR     = 

OBJECT_NAME    = TWILIGHT B
OBJECT_ID      = 2026-004B
CENTER_NAME    = EARTH
REF_FRAME      = TEME
TIME_SYSTEM    = UTC
MEAN_ELEMENT_THEORY = SGP/SGP4

EPOCH          = 2026-02-03T13:25:41.662272
MEAN_MOTION    = 14.87143194
ECCENTRICITY   = .0007814
INCLINATION    = 97.7998
RA_OF_ASC_NODE = 35.3146
ARG_OF_PERICENTER = 205.8466
MEAN_ANOMALY   = 154.2361

EPHEMERIS_TYPE = 0
CLASSIFICATION_TYPE = U
NORAD_CAT_ID   = 67364
ELEMENT_SET_NO = 999
REV_AT_EPOCH   = 342
BSTAR          = .69143485E-3
MEAN_MOTION_DOT = .6166E-4
MEAN_MOTION_DDOT = 0

CCSDS_OMM_VERS = 2.0
CREATION_DATE  = 
ORIGINATOR     = 

OBJECT_NAME    = TWILIGHT C
OBJECT_ID      = 2026-004C
CENTER_NAME    = EARTH
REF_FRAME      = TEME
TIME_SYSTEM    = UTC
MEAN_ELEMENT_THEORY = SGP/SGP4

EPOCH          = 2026-02-03T13:25:13.785312
MEAN_MOTION    = 14.87163676
ECCENTRICITY   = .00073726
INCLINATION    = 97.7974
RA_OF_ASC_NODE = 35.3116
ARG_OF_PERICENTER = 211.3806
MEAN_ANOMALY   = 148.6971

EPHEMERIS_TYPE = 0
CLASSIFICATION_TYPE = U
NORAD_CAT_ID   = 67365
ELEMENT_SET_NO = 999
REV_AT_EPOCH   = 342
BSTAR          = .72770795E-3
MEAN_MOTION_DOT = .6495E-4
MEAN_MOTION_DDOT = 0

CCSDS_OMM_VERS = 2.0
CREATION_DATE  = 
ORIGINATOR     = 

OBJECT_NAME    = TWILIGHT D
OBJECT_ID      = 2026-004D
CENTER_NAME    = EARTH
REF_FRAME      = TEME
TIME_SYSTEM    = UTC
MEAN_ELEMENT_THEORY = SGP/SGP4

EPOCH          = 2026-02-03T11:47:55.476384
MEAN_MOTION    = 14.87128890
ECCENTRICITY   = .00080129
INCLINATION    = 97.8030
RA_OF_ASC_NODE = 35.2538
ARG_OF_PERICENTER = 199.9498
MEAN_ANOMALY   = 160.1406

EPHEMERIS_TYPE = 0
CLASSIFICATION_TYPE = U
NORAD_CAT_ID   = 67366
ELEMENT_SET_NO = 999
REV_AT_EPOCH   = 341
BSTAR          = .42711425E-3
MEAN_MOTION_DOT = .3786E-4
MEAN_MOTION_DDOT = 0

CCSDS_OMM_VERS = 2.0
CREATION_DATE  = 
ORIGINATOR     = 

OBJECT_NAME    = TWILIGHT E
OBJECT_ID      = 2026-004E
CENTER_NAME    = EARTH
REF_FRAME      = TEME
TIME_SYSTEM    = UTC
MEAN_ELEMENT_THEORY = SGP/SGP4

EPOCH          = 2026-02-03T13:22:41.755872
MEAN_MOTION    = 14.87286261
ECCENTRICITY   = .00068563
INCLINATION    = 97.7961
RA_OF_ASC_NODE = 35.3121
ARG_OF_PERICENTER = 212.7765
MEAN_ANOMALY   = 147.3027

EPHEMERIS_TYPE = 0
CLASSIFICATION_TYPE = U
NORAD_CAT_ID   = 67367
ELEMENT_SET_NO = 999
REV_AT_EPOCH   = 342
BSTAR          = .73478479E-3
MEAN_MOTION_DOT = .6579E-4
MEAN_MOTION_DDOT = 0

CCSDS_OMM_VERS = 2.0
CREATION_DATE  = 
ORIGINATOR     = 

OBJECT_NAME    = TWILIGHT F
OBJECT_ID      = 2026-004F
CENTER_NAME    = EARTH
REF_FRAME      = TEME
TIME_SYSTEM    = UTC
MEAN_ELEMENT_THEORY = SGP/SGP4

EPOCH          = 2026-02-03T13:21:52.029216
MEAN_MOTION    = 14.87311947
ECCENTRICITY   = .00073668
INCLINATION    = 97.8021
RA_OF_ASC_NODE = 35.3223
ARG_OF_PERICENTER = 200.8352
MEAN_ANOMALY   = 159.2565

EPHEMERIS_TYPE = 0
CLASSIFICATION_TYPE = U
NORAD_CAT_ID   = 67368
ELEMENT_SET_NO = 999
REV_AT_EPOCH   = 342
BSTAR          = .68727889E-3
MEAN_MOTION_DOT = .6154E-4
MEAN_MOTION_DDOT = 0

CCSDS_OMM_VERS = 2.0
CREATION_DATE  = 
ORIGINATOR     = 

OBJECT_NAME    = TWILIGHT G
OBJECT_ID      = 2026-004G
CENTER_NAME    = EARTH
REF_FRAME      = TEME
TIME_SYSTEM    = UTC
MEAN_ELEMENT_THEORY = SGP/SGP4

EPOCH          = 2026-02-03T13:20:58.030944
MEAN_MOTION    = 14.87275090
ECCENTRICITY   = .00062785
INCLINATION    = 97.7953
RA_OF_ASC_NODE = 35.3128
ARG_OF_PERICENTER = 215.0140
MEAN_ANOMALY   = 145.0664

EPHEMERIS_TYPE = 0
CLASSIFICATION_TYPE = U
NORAD_CAT_ID   = 67369
ELEMENT_SET_NO = 999
REV_AT_EPOCH   = 342
BSTAR          = .37646067E-3
MEAN_MOTION_DOT = .3341E-4
MEAN_MOTION_DDOT = 0

