STARLINK-36466          
1 67358U 26003AA  26034.58335648 -.00006670  00000+0 -10801-3 0  9990
2 67358  42.9993  60.9073 0001416 275.4035  84.4256 15.50569001  5196
STARLINK-36499          
1 67359U 26003AB  26034.58335648  .00106378  00000+0  17992-2 0  9992
2 67359  42.9993  60.9025 0001541 277.9119  83.7965 15.50505836  5198
STARLINK-36469          
1 67360U 26003AC  26034.58335648  .00108714  00000+0  18370-2 0  9991
2 67360  42.9994  60.8976 0001405 279.5867  84.0092 15.50521476  5195
STARLINK-35306          
1 67361U 26003AD  26034.58335648  .00158224  00000+0  26566-2 0  9999
2 67361  42.9994  60.8920 0001758 278.4977  87.0968 15.50494787  5139
STARLINK-36428          
1 67362U 26003AE  26034.58335648  .00125842  00000+0  21227-2 0  9999
2 67362  42.9996  60.8872 0001956 281.6847  85.8311 15.50496652  5197
TWILIGHT A              
1 67363U 26004A   26034.56098373  .00004853  00000+0  54731-3 0  9995
2 67363  97.7995  35.3125 0007892 210.8346 149.2407 14.87016395  3411
TWILIGHT B              
1 67364U 26004B   26034.55950998  .00006166  00000+0  69143-3 0  9997
2 67364  97.7998  35.3146 0007814 205.8466 154.2361 14.87143194  3423
TWILIGHT C              
1 67365U 26004C   26034.55918733  .00006495  00000+0  72771-3 0  9995
2 67365  97.7974  35.3116 0007372 211.3806 148.6971 14.87163676  3425
TWILIGHT D              
1 67366U 26004D   26034.49161431  .00003786  00000+0  42711-3 0  9995
2 67366  97.8030  35.2538 0008012 199.9498 160.1406 14.87128890  3417
TWILIGHT E              
1 67367U 26004E   26034.55742773  .00006579  00000+0  73478-3 0  9994
2 67367  97.7961  35.3121 0006856 212.7765 147.3027 14.87286261  3428
TWILIGHT F              
1 67368U 26004F   26034.55685219  .00006154  00000+0  68728-3 0  9997
2 67368  97.8021  35.3223 0007366 200.8352 159.2565 14.87311947  3426
TWILIGHT G              
1 67369U 26004G   26034.55622721  .00003341  00000+0  37646-3 0  9997
2 67369  97.7953  35.3128 0006278 215.0140 145.0664 14.87275090  3429
